[
    {
        "Altitude(m)": 703807.3479915255,
        "Argument of Periapsis(deg)": 0.0034170363559881197,
        "Eccentricity": 0.0,
        "Inclination(deg)": 45.0,
        "Latitude(deg)": -2.523183733604385,
        "Longitude(deg)": 12.301413681840913,
        "Mean Anomaly(deg)": -176.5400350057558,
        "RAAN(deg)": 289.99677441756256,
        "Satellite Name": "Constellation 1 1287",
        "Satellite Number": 1287,
        "Semi-Major Axis(m)": 7083131.272910544,
        "Time(s)": 57
    },
    {
        "Altitude(m)": 703814.1556865466,
        "Argument of Periapsis(deg)": 0.003476984362233526,
        "Eccentricity": 0.0,
        "Inclination(deg)": 45.0,
        "Latitude(deg)": -2.5663519553645417,
        "Longitude(deg)": 12.340242344097529,
        "Mean Anomaly(deg)": -176.47933386550588,
        "RAAN(deg)": 289.996717828397,
        "Satellite Name": "Constellation 1 1287",
        "Satellite Number": 1287,
        "Semi-Major Axis(m)": 7083131.272910544,
        "Time(s)": 58
    },
    {
        "Altitude(m)": 703820.983476184,
        "Argument of Periapsis(deg)": 0.003536932368478932,
        "Eccentricity": 0.0,
        "Inclination(deg)": 45.0,
        "Latitude(deg)": -2.609518624272593,
        "Longitude(deg)": 12.37907364255602,
        "Mean Anomaly(deg)": -176.41863272525595,
        "RAAN(deg)": 289.99666123923146,
        "Satellite Name": "Constellation 1 1287",
        "Satellite Number": 1287,
        "Semi-Major Axis(m)": 7083131.272910544,
        "Time(s)": 59
    },
    {
        "Altitude(m)": 703827.8313484497,
        "Argument of Periapsis(deg)": 0.003596880374724337,
        "Eccentricity": 0.0,
        "Inclination(deg)": 45.0,
        "Latitude(deg)": -2.6526837152479614,
        "Longitude(deg)": 12.417907961879106,
        "Mean Anomaly(deg)": -176.35793158500604,
        "RAAN(deg)": 289.9966046500659,
        "Satellite Name": "Constellation 1 1287",
        "Satellite Number": 1287,
        "Semi-Major Axis(m)": 7083131.272910544,
        "Time(s)": 60
    },
    {
        "Altitude(m)": 703834.6992912791,
        "Argument of Periapsis(deg)": 0.0036568283809697427,
        "Eccentricity": 0.0,
        "Inclination(deg)": 45.0,
        "Latitude(deg)": -2.6958472032057745,
        "Longitude(deg)": 12.456745182444255,
        "Mean Anomaly(deg)": -176.29723044475622,
        "RAAN(deg)": 289.99654806090035,
        "Satellite Name": "Constellation 1 1287",
        "Satellite Number": 1287,
        "Semi-Major Axis(m)": 7083131.272910544,
        "Time(s)": 61
    },
    {
        "Altitude(m)": 703841.5872925058,
        "Argument of Periapsis(deg)": 0.003716776387215149,
        "Eccentricity": 0.0,
        "Inclination(deg)": 45.0,
        "Latitude(deg)": -2.7390090630558306,
        "Longitude(deg)": 12.495585352732713,
        "Mean Anomaly(deg)": -176.23652930450623,
        "RAAN(deg)": 289.9964914717347,
        "Satellite Name": "Constellation 1 1287",
        "Satellite Number": 1287,
        "Semi-Major Axis(m)": 7083131.272910544,
        "Time(s)": 62
    },
    {
        "Altitude(m)": 703848.4953398686,
        "Argument of Periapsis(deg)": 0.003776724393460554,
        "Eccentricity": 0.0,
        "Inclination(deg)": 45.0,
        "Latitude(deg)": -2.7821692697021976,
        "Longitude(deg)": 12.534428521231606,
        "Mean Anomaly(deg)": -176.17582816425636,
        "RAAN(deg)": 289.99643488256913,
        "Satellite Name": "Constellation 1 1287",
        "Satellite Number": 1287,
        "Semi-Major Axis(m)": 7083131.272910544,
        "Time(s)": 63
    },
    {
        "Altitude(m)": 703855.4234210177,
        "Argument of Periapsis(deg)": 0.003836672399705959,
        "Eccentricity": 0.0,
        "Inclination(deg)": 45.0,
        "Latitude(deg)": -2.825327798043681,
        "Longitude(deg)": 12.573274736434723,
        "Mean Anomaly(deg)": -176.1151270240065,
        "RAAN(deg)": 289.9963782934036,
        "Satellite Name": "Constellation 1 1287",
        "Satellite Number": 1287,
        "Semi-Major Axis(m)": 7083131.272910544,
        "Time(s)": 64
    },
    {
        "Altitude(m)": 703862.371523513,
        "Argument of Periapsis(deg)": 0.003896620405951365,
        "Eccentricity": 0.0,
        "Inclination(deg)": 45.0,
        "Latitude(deg)": -2.86848462297374,
        "Longitude(deg)": 12.612124046842524,
        "Mean Anomaly(deg)": -176.05442588375658,
        "RAAN(deg)": 289.996321704238,
        "Satellite Name": "Constellation 1 1287",
        "Satellite Number": 1287,
        "Semi-Major Axis(m)": 7083131.272910544,
        "Time(s)": 65
    },
    {
        "Altitude(m)": 703869.3396348171,
        "Argument of Periapsis(deg)": 0.003956568412196771,
        "Eccentricity": 0.0,
        "Inclination(deg)": 45.0,
        "Latitude(deg)": -2.911639719379811,
        "Longitude(deg)": 12.650976500961825,
        "Mean Anomaly(deg)": -175.99372474350665,
        "RAAN(deg)": 289.9962651150725,
        "Satellite Name": "Constellation 1 1287",
        "Satellite Number": 1287,
        "Semi-Major Axis(m)": 7083131.272910544,
        "Time(s)": 66
    },
    {
        "Altitude(m)": 703876.3277423072,
        "Argument of Periapsis(deg)": 0.004016516418442176,
        "Eccentricity": 0.0,
        "Inclination(deg)": 45.0,
        "Latitude(deg)": -2.9547930621440908,
        "Longitude(deg)": 12.689831979209155,
        "Mean Anomaly(deg)": -175.93302360325683,
        "RAAN(deg)": 289.99620852590687,
        "Satellite Name": "Constellation 1 1287",
        "Satellite Number": 1287,
        "Semi-Major Axis(m)": 7083131.272910544,
        "Time(s)": 67
    },
    {
        "Altitude(m)": 703883.3358332599,
        "Argument of Periapsis(deg)": 0.004076464424687581,
        "Eccentricity": 0.0,
        "Inclination(deg)": 45.0,
        "Latitude(deg)": -2.9979446261422384,
        "Longitude(deg)": 12.728690866299589,
        "Mean Anomaly(deg)": -175.87232246300684,
        "RAAN(deg)": 289.9961519367413,
        "Satellite Name": "Constellation 1 1287",
        "Satellite Number": 1287,
        "Semi-Major Axis(m)": 7083131.272910544,
        "Time(s)": 68
    },
    {
        "Altitude(m)": 703890.3638948711,
        "Argument of Periapsis(deg)": 0.004136412430932987,
        "Eccentricity": 0.0,
        "Inclination(deg)": 45.0,
        "Latitude(deg)": -3.041094386244591,
        "Longitude(deg)": 12.767553042663458,
        "Mean Anomaly(deg)": -175.8116213227569,
        "RAAN(deg)": 289.99609534757576,
        "Satellite Name": "Constellation 1 1287",
        "Satellite Number": 1287,
        "Semi-Major Axis(m)": 7083131.272910544,
        "Time(s)": 69
    },
    {
        "Altitude(m)": 703897.4119142344,
        "Argument of Periapsis(deg)": 0.004196360437178394,
        "Eccentricity": 0.0,
        "Inclination(deg)": 45.0,
        "Latitude(deg)": -3.0842423173153293,
        "Longitude(deg)": 12.806418556835407,
        "Mean Anomaly(deg)": -175.75092018250706,
        "RAAN(deg)": 289.9960387584102,
        "Satellite Name": "Constellation 1 1287",
        "Satellite Number": 1287,
        "Semi-Major Axis(m)": 7083131.272910544,
        "Time(s)": 70
    },
    {
        "Altitude(m)": 703904.4798783523,
        "Argument of Periapsis(deg)": 0.004256308443423799,
        "Eccentricity": 0.0,
        "Inclination(deg)": 45.0,
        "Latitude(deg)": -3.1273883942126677,
        "Longitude(deg)": 12.845287457357442,
        "Mean Anomaly(deg)": -175.69021904225718,
        "RAAN(deg)": 289.9959821692446,
        "Satellite Name": "Constellation 1 1287",
        "Satellite Number": 1287,
        "Semi-Major Axis(m)": 7083131.272910544,
        "Time(s)": 71
    },
    {
        "Altitude(m)": 703911.5677741468,
        "Argument of Periapsis(deg)": 0.004316256449669204,
        "Eccentricity": 0.0,
        "Inclination(deg)": 45.0,
        "Latitude(deg)": -3.1705325917884477,
        "Longitude(deg)": 12.884159792778659,
        "Mean Anomaly(deg)": -175.6295179020072,
        "RAAN(deg)": 289.995925580079,
        "Satellite Name": "Constellation 1 1287",
        "Satellite Number": 1287,
        "Semi-Major Axis(m)": 7083131.272910544,
        "Time(s)": 72
    },
    {
        "Altitude(m)": 703918.6755884322,
        "Argument of Periapsis(deg)": 0.00437620445591461,
        "Eccentricity": 0.0,
        "Inclination(deg)": 45.0,
        "Latitude(deg)": -3.213674884888259,
        "Longitude(deg)": 12.923035611655584,
        "Mean Anomaly(deg)": -175.56881676175738,
        "RAAN(deg)": 289.99586899091344,
        "Satellite Name": "Constellation 1 1287",
        "Satellite Number": 1287,
        "Semi-Major Axis(m)": 7083131.272910544,
        "Time(s)": 73
    },
    {
        "Altitude(m)": 703925.8033079405,
        "Argument of Periapsis(deg)": 0.004436152462160016,
        "Eccentricity": 0.0,
        "Inclination(deg)": 45.0,
        "Latitude(deg)": -3.2568152483516988,
        "Longitude(deg)": 12.961914794455272,
        "Mean Anomaly(deg)": -175.50811562150753,
        "RAAN(deg)": 289.9958124017479,
        "Satellite Name": "Constellation 1 1287",
        "Satellite Number": 1287,
        "Semi-Major Axis(m)": 7083131.272910544,
        "Time(s)": 74
    },
    {
        "Altitude(m)": 703932.9509193093,
        "Argument of Periapsis(deg)": 0.0044961004684054215,
        "Eccentricity": 0.0,
        "Inclination(deg)": 45.0,
        "Latitude(deg)": -3.299953657011124,
        "Longitude(deg)": 13.000797725943595,
        "Mean Anomaly(deg)": -175.44741448125754,
        "RAAN(deg)": 289.99575581258233,
        "Satellite Name": "Constellation 1 1287",
        "Satellite Number": 1287,
        "Semi-Major Axis(m)": 7083131.272910544,
        "Time(s)": 75
    }
]